NORAD_CAT_ID,OBJECT_NAME,OBJECT_TYPE,EPOCH,MEAN_MOTION,ECCENTRICITY,INCLINATION,RA_OF_ASC_NODE,ARG_OF_PERICENTER,MEAN_ANOMALY,BSTAR,MEAN_MOTION_DOT,MEAN_MOTION_DDOT,TLE_LINE0,TLE_LINE1,TLE_LINE2,SEMIMAJOR_AXIS,PERIOD,APOGEE,PERIGEE,DECAYED
55783.0,STARLINK-5825,PAYLOAD,2023-05-03 17:27:50,15.69933957,0.0003634,69.9993,343.7737,274.4381,85.64,4.3916e-07,-1.6e-06,0.0,0 STARLINK-5825,1 55783U 23028AU  23123.72767211 -.00000160  00000-0  43916-6 0  9994,2 55783  69.9993 343.7737 0003634 274.4381  85.6400 15.69933957 10241,6737.223,91.724,361.536,356.64,0.0
55783.0,STARLINK-5825,PAYLOAD,2023-05-03 23:34:50,15.69939114,0.0003013,69.9996,343.0561,258.964,101.1217,1.22e-05,1.255e-05,0.0,0 STARLINK-5825,1 55783U 23028AU  23123.98253075  .00001255  00000-0  12200-4 0  9995,2 55783  69.9996 343.0561 0003013 258.9640 101.1217 15.69939114 10283,6737.208,91.723,361.103,357.043,0.0
55783.0,STARLINK-5825,PAYLOAD,2023-05-04 17:55:53,15.69920769,0.0003515,69.9978,340.9045,266.8999,93.1794,6.5674e-06,5.77e-06,0.0,0 STARLINK-5825,1 55783U 23028AU  23124.74714342  .00000577  00000-0  65674-5 0  9999,2 55783  69.9978 340.9045 0003515 266.8999  93.1794 15.69920769 10408,6737.261,91.724,361.494,356.758,0.0
55783.0,STARLINK-5825,PAYLOAD,2023-05-04 20:59:23,15.69925621,0.0003711,69.997,340.5465,266.4492,93.6279,1.2243e-05,1.259e-05,0.0,0 STARLINK-5825,1 55783U 23028AU  23124.87457277  .00001259  00000-0  12243-4 0  9995,2 55783  69.9970 340.5465 0003711 266.4492  93.6279 15.69925621 10421,6737.247,91.724,361.612,356.612,0.0
55783.0,STARLINK-5825,PAYLOAD,2023-05-05 00:02:53,15.69926343,0.0003524,69.9973,340.1882,265.8906,94.1886,1.3294e-05,1.386e-05,0.0,0 STARLINK-5825,1 55783U 23028AU  23125.00200610  .00001386  00000-0  13294-4 0  9996,2 55783  69.9973 340.1882 0003524 265.8906  94.1886 15.69926343 10442,6737.245,91.724,361.484,356.736,0.0
55783.0,STARLINK-5825,PAYLOAD,2023-05-05 16:52:10,15.69924105,0.0003514,69.9979,338.2185,268.3646,91.7147,8.1173e-06,7.63e-06,0.0,0 STARLINK-5825,1 55783U 23028AU  23125.70289435  .00000763  00000-0  81173-5 0  9995,2 55783  69.9979 338.2185 0003514 268.3646  91.7147 15.69924105 10559,6737.251,91.724,361.484,356.749,0.0
55783.0,STARLINK-5825,PAYLOAD,2023-05-05 22:59:09,15.69942042,0.0003375,69.9977,337.501,268.0656,92.0153,9.9793e-06,9.88e-06,0.0,0 STARLINK-5825,1 55783U 23028AU  23125.95774848  .00000988  00000-0  99793-5 0  9995,2 55783  69.9977 337.5010 0003375 268.0656  92.0153 15.69942042 10594,6737.2,91.723,361.339,356.791,0.0
55783.0,STARLINK-5825,PAYLOAD,2023-05-06 15:48:26,15.69929182,0.0003149,69.998,335.5274,265.0119,95.0717,1.5878e-05,1.697e-05,0.0,0 STARLINK-5825,1 55783U 23028AU  23126.65863804  .00001697  00000-0  15878-4 0  9993,2 55783  69.9980 335.5274 0003149 265.0119  95.0717 15.69929182 10700,6737.237,91.724,361.223,356.98,0.0
55783.0,STARLINK-5825,PAYLOAD,2023-05-06 20:23:41,15.69940714,0.0003462,69.9986,334.9939,265.1915,94.8885,3.4025e-05,3.883e-05,0.0,0 STARLINK-5825,1 55783U 23028AU  23126.84978203  .00003883  00000-0  34025-4 0  9998,2 55783  69.9986 334.9939 0003462 265.1915  94.8885 15.69940714 10730,6737.204,91.723,361.401,356.736,0.0
55783.0,STARLINK-5825,PAYLOAD,2023-05-06 23:27:12,15.69911826,0.0003328,69.9977,334.6342,267.7993,92.2822,-2.0623e-05,-2.69e-05,0.0,0 STARLINK-5825,1 55783U 23028AU  23126.97722980 -.00002690  00000-0 -20623-4 0  9997,2 55783  69.9977 334.6342 0003328 267.7993  92.2822 15.69911826 10757,6737.286,91.725,361.393,356.909,0.0
55783.0,STARLINK-5825,PAYLOAD,2023-05-07 16:16:29,15.69915913,0.0003443,69.9979,332.6605,267.4574,92.6227,-1.6201e-05,-2.16e-05,0.0,0 STARLINK-5825,1 55783U 23028AU  23127.67811413 -.00002160  00000-0 -16201-4 0  9994,2 55783  69.9979 332.6605 0003443 267.4574  92.6227 15.69915913 10865,6737.275,91.725,361.459,356.82,0.0
55783.0,STARLINK-5825,PAYLOAD,2023-05-07 23:55:14,15.69924973,0.0003069,70.0,331.7686,264.6929,95.3916,8.1699e-06,7.7e-06,0.0,0 STARLINK-5825,1 55783U 23028AU  23127.99669531  .00000770  00000-0  81699-5 0  9998,2 55783  70.0000 331.7686 0003069 264.6929  95.3916 15.69924973 10916,6737.249,91.724,361.181,357.046,0.0
55783.0,STARLINK-5825,PAYLOAD,2023-05-08 16:44:30,15.69934096,0.0003587,69.9991,329.7974,256.2702,103.8095,7.6485e-06,7.07e-06,0.0,0 STARLINK-5825,1 55783U 23028AU  23128.69757196  .00000707  00000-0  76485-5 0  9998,2 55783  69.9991 329.7974 0003587 256.2702 103.8095 15.69934096 11023,6737.223,91.724,361.504,356.671,0.0
55783.0,STARLINK-5825,PAYLOAD,2023-05-08 21:19:45,15.6993518,0.0003636,69.999,329.2602,259.3175,100.7612,1.2359e-05,1.274e-05,0.0,0 STARLINK-5825,1 55783U 23028AU  23128.88872111  .00001274  00000-0  12359-4 0  9993,2 55783  69.9990 329.2602 0003636 259.3175 100.7612 15.69935180 11057,6737.219,91.724,361.534,356.635,0.0
55783.0,STARLINK-5825,PAYLOAD,2023-05-09 14:09:02,15.69926751,0.0003894,69.9949,327.2869,268.2651,91.8099,1.1453e-06,-7.5e-07,0.0,0 STARLINK-5825,1 55783U 23028AU  23129.58961396 -.00000075  00000-0  11453-5 0  9999,2 55783  69.9949 327.2869 0003894 268.2651  91.8099 15.69926751 11163,6737.244,91.724,361.732,356.485,0.0
55783.0,STARLINK-5825,PAYLOAD,2023-05-09 23:19:33,15.69929364,0.0003634,69.9961,326.2107,268.525,91.5529,1.0496e-05,1.05e-05,0.0,0 STARLINK-5825,1 55783U 23028AU  23129.97191107  .00001050  00000-0  10496-4 0  9995,2 55783  69.9961 326.2107 0003634 268.5250  91.5529 15.69929364 11226,6737.236,91.724,361.549,356.653,0.0
55783.0,STARLINK-5825,PAYLOAD,2023-05-10 19:12:19,15.69941568,0.0003863,69.9991,323.8857,266.7608,93.3146,3.4787e-05,3.975e-05,0.0,0 STARLINK-5825,1 55783U 23028AU  23130.80022168  .00003975  00000-0  34787-4 0  9996,2 55783  69.9991 323.8857 0003863 266.7608  93.3146 15.69941568 11354,6737.201,91.723,361.669,356.464,0.0
55783.0,STARLINK-5825,PAYLOAD,2023-05-11 05:54:36,15.69916394,0.0003801,69.999,322.6287,272.4511,87.625,4.0327e-06,2.72e-06,0.0,0 STARLINK-5825,1 55783U 23028AU  23131.24625059  .00000272  00000-0  40327-5 0  9998,2 55783  69.9990 322.6287 0003801 272.4511  87.6250 15.69916394 11425,6737.273,91.725,361.699,356.577,0.0
55783.0,STARLINK-5825,PAYLOAD,2023-05-11 15:05:07,15.69916344,0.0003487,70.0003,321.5557,270.7005,89.3791,-4.1429e-06,-7.11e-06,0.0,0 STARLINK-5825,1 55783U 23028AU  23131.62855441 -.00000711  00000-0 -41429-5 0  9994,2 55783  70.0003 321.5557 0003487 270.7005  89.3791 15.69916344 11480,6737.273,91.725,361.488,356.789,0.0
55783.0,STARLINK-5825,PAYLOAD,2023-05-11 21:12:06,15.69935243,0.0003619,69.9991,320.8399,256.2502,103.8291,2.0722e-05,2.281e-05,0.0,0 STARLINK-5825,1 55783U 23028AU  23131.88340942  .00002281  00000-0  20722-4 0  9991,2 55783  69.9991 320.8399 0003619 256.2502 103.8291 15.69935243 11528,6737.219,91.724,361.522,356.646,0.0
55783.0,STARLINK-5825,PAYLOAD,2023-05-11 22:43:51,15.69933511,0.0003761,69.9979,320.6587,269.072,91.0044,1.8659e-05,2.032e-05,0.0,0 STARLINK-5825,1 55783U 23028AU  23131.94712704  .00002032  00000-0  18659-4 0  9997,2 55783  69.9979 320.6587 0003761 269.0720  91.0044 15.69933511 11534,6737.224,91.724,361.623,356.555,0.0
55783.0,STARLINK-5825,PAYLOAD,2023-05-12 15:33:08,15.69930057,0.00034,69.9989,318.6892,265.4341,94.6467,-1.9702e-06,-4.5e-06,0.0,0 STARLINK-5825,1 55783U 23028AU  23132.64801327 -.00000450  00000-0 -19702-5 0  9990,2 55783  69.9989 318.6892 0003400 265.4341  94.6467 15.69930057 11642,6737.234,91.724,361.39,356.808,0.0
55783.0,STARLINK-5825,PAYLOAD,2023-05-13 12:57:40,15.69917031,0.0003281,70.0012,316.1827,255.0334,105.0499,7.0391e-06,6.34e-06,0.0,0 STARLINK-5825,1 55783U 23028AU  23133.54005562  .00000634  00000-0  70391-5 0  9990,2 55783  70.0012 316.1827 0003281 255.0334 105.0499 15.69917031 11781,6737.271,91.725,361.347,356.926,0.0
55783.0,STARLINK-5825,PAYLOAD,2023-05-13 14:29:25,15.69917194,0.0003192,70.0008,316.0054,251.3697,108.7152,1.9179e-06,1.8e-07,0.0,0 STARLINK-5825,1 55783U 23028AU  23133.60377294  .00000018  00000-0  19179-5 0  9994,2 55783  70.0008 316.0054 0003192 251.3697 108.7152 15.69917194 11796,6737.271,91.725,361.286,356.985,0.0
55783.0,STARLINK-5825,PAYLOAD,2023-05-13 20:36:26,15.69923474,0.0003382,70.0,315.2898,247.7723,112.3114,-3.8777e-06,-6.79e-06,0.0,0 STARLINK-5825,1 55783U 23028AU  23133.85863636 -.00000679  00000-0 -38777-5 0  9991,2 55783  70.0000 315.2898 0003382 247.7723 112.3114 15.69923474 11837,6737.253,91.724,361.396,356.839,0.0
55783.0,STARLINK-5825,PAYLOAD,2023-05-13 22:08:11,15.69927245,0.0003559,70.0003,315.1098,270.1152,89.9636,1.1978e-05,1.228e-05,0.0,0 STARLINK-5825,1 55783U 23028AU  23133.92235226  .00001228  00000-0  11978-4 0  9999,2 55783  70.0003 315.1098 0003559 270.1152  89.9636 15.69927245 11842,6737.242,91.724,361.505,356.709,0.0
55783.0,STARLINK-5825,PAYLOAD,2023-05-14 13:25:41,15.69934652,0.0003595,70.0001,313.316,262.6205,97.4582,9.6564e-06,9.49e-06,0.0,0 STARLINK-5825,1 55783U 23028AU  23134.55951336  .00000949  00000-0  96564-5 0  9990,2 55783  70.0001 313.3160 0003595 262.6205  97.4582 15.69934652 11940,6737.221,91.724,361.508,356.664,0.0
55783.0,STARLINK-5825,PAYLOAD,2023-05-14 21:04:27,15.69927857,0.0003697,69.9991,312.4201,259.9034,100.1745,-1.3487e-06,-3.75e-06,0.0,0 STARLINK-5825,1 55783U 23028AU  23134.87809903 -.00000375  00000-0 -13487-5 0  9995,2 55783  69.9991 312.4201 0003697 259.9034 100.1745 15.69927857 11990,6737.24,91.724,361.596,356.615,0.0
55783.0,STARLINK-5825,PAYLOAD,2023-05-14 22:36:13,15.69915693,0.0003485,69.9995,312.241,264.0858,95.994,-2.2741e-05,-2.945e-05,0.0,0 STARLINK-5825,1 55783U 23028AU  23134.94182123 -.00002945  00000-0 -22741-4 0  9998,2 55783  69.9995 312.2410 0003485 264.0858  95.9940 15.69915693 12006,6737.275,91.725,361.488,356.792,0.0
55783.0,STARLINK-5825,PAYLOAD,2023-05-15 12:21:59,15.69921816,0.0003791,69.9984,310.6291,265.2035,94.8728,-1.6411e-05,-2.186e-05,0.0,0 STARLINK-5825,1 55783U 23028AU  23135.51527089 -.00002186  00000-0 -16411-4 0  9990,2 55783  69.9984 310.6291 0003791 265.2035  94.8728 15.69921816 12098,6737.258,91.724,361.677,356.569,0.0
